start=new Date('2023-04-16T00:00:00.000Z').valueOf();
sats=[{"CLASSIFICATION_TYPE":"U","GP_ID":"230100995","FILE":"3887974","OBJECT_TYPE":"PAYLOAD","TIME_SYSTEM":"UTC","OBJECT_NAME":"STARLINK-4552","SEMIMAJOR_AXIS":"6917.886","MEAN_ANOMALY":"289.9601","EPOCH":"2023-04-15T11:51:28.793664","ELEMENT_SET_NO":"999","REF_FRAME":"TEME","PERIAPSIS":"538.634","RA_OF_ASC_NODE":"189.0358","MEAN_MOTION_DOT":"0.00000790","MEAN_MOTION_DDOT":"0.0000000000000","BSTAR":"0.00006774000000","SITE":"AFETR","MEAN_ELEMENT_THEORY":"SGP4","MEAN_MOTION":"15.08838216","TLE_LINE2":"2 53420  53.2138 189.0358 0001615  70.1565 289.9601 15.08838216 38726","EPHEMERIS_TYPE":"0","TLE_LINE1":"1 53420U 22097AJ  23105.49408326  .00000790  00000-0  67740-4 0  9995","APOAPSIS":"540.868","INCLINATION":"53.2138","REV_AT_EPOCH":"3872","ARG_OF_PERICENTER":"70.1565","OBJECT_ID":"2022-097AJ","PERIOD":"95.438","COUNTRY_CODE":"US","DECAY_DATE":null,"NORAD_CAT_ID":"53420","RCS_SIZE":"LARGE","CENTER_NAME":"EARTH","LAUNCH_DATE":"2022-08-10","ECCENTRICITY":"0.00016150"},{"REV_AT_EPOCH":"3875","INCLINATION":"53.2131","TLE_LINE1":"1 53421U 22097AK  23105.70014525  .00008146  00000-0  52890-3 0  9996","EPHEMERIS_TYPE":"0","APOAPSIS":"540.381","TLE_LINE2":"2 53421  53.2131 188.1073 0001034 105.5141 254.5965 15.08865936 38755","MEAN_MOTION":"15.08865936","ECCENTRICITY":"0.00010340","LAUNCH_DATE":"2022-08-10","CENTER_NAME":"EARTH","RCS_SIZE":"LARGE","DECAY_DATE":null,"NORAD_CAT_ID":"53421","COUNTRY_CODE":"US","PERIOD":"95.436","OBJECT_ID":"2022-097AK","ARG_OF_PERICENTER":"105.5141","EPOCH":"2023-04-15T16:48:12.549600","SEMIMAJOR_AXIS":"6917.801","MEAN_ANOMALY":"254.5965","OBJECT_NAME":"STARLINK-4545","TIME_SYSTEM":"UTC","FILE":"3888171","OBJECT_TYPE":"PAYLOAD","GP_ID":"230132006","CLASSIFICATION_TYPE":"U","MEAN_ELEMENT_THEORY":"SGP4","SITE":"AFETR","BSTAR":"0.00052890000000","MEAN_MOTION_DOT":"0.00008146","MEAN_MOTION_DDOT":"0.0000000000000","RA_OF_ASC_NODE":"188.1073","PERIAPSIS":"538.951","ELEMENT_SET_NO":"999","REF_FRAME":"TEME"},{"REV_AT_EPOCH":"3875","APOAPSIS":"540.717","TLE_LINE1":"1 53422U 22097AL  23105.55295598  .00002411  00000-0  16947-3 0  9993","EPHEMERIS_TYPE":"0","INCLINATION":"53.2163","MEAN_MOTION":"15.08844280","TLE_LINE2":"2 53422  53.2163 188.7727 0001424  54.7010 305.4115 15.08844280 38758","DECAY_DATE":null,"NORAD_CAT_ID":"53422","ECCENTRICITY":"0.00014240","LAUNCH_DATE":"2022-08-10","CENTER_NAME":"EARTH","RCS_SIZE":"LARGE","COUNTRY_CODE":"US","ARG_OF_PERICENTER":"54.7010","OBJECT_ID":"2022-097AL","PERIOD":"95.437","MEAN_ANOMALY":"305.4115","SEMIMAJOR_AXIS":"6917.867","OBJECT_NAME":"STARLINK-4546","EPOCH":"2023-04-15T13:16:15.396672","CLASSIFICATION_TYPE":"U","GP_ID":"230099994","OBJECT_TYPE":"PAYLOAD","FILE":"3887974","TIME_SYSTEM":"UTC","MEAN_MOTION_DOT":"0.00002411","MEAN_MOTION_DDOT":"0.0000000000000","BSTAR":"0.00016947000000","RA_OF_ASC_NODE":"188.7727","MEAN_ELEMENT_THEORY":"SGP4","SITE":"AFETR","PERIAPSIS":"538.747","REF_FRAME":"TEME","ELEMENT_SET_NO":"999"},{"PERIAPSIS":"538.755","ELEMENT_SET_NO":"999","REF_FRAME":"TEME","MEAN_ELEMENT_THEORY":"SGP4","SITE":"AFETR","MEAN_MOTION_DDOT":"0.0000000000000","MEAN_MOTION_DOT":"0.00003818","BSTAR":"0.00025891000000","RA_OF_ASC_NODE":"189.0247","OBJECT_TYPE":"PAYLOAD","FILE":"3887974","TIME_SYSTEM":"UTC","CLASSIFICATION_TYPE":"U","GP_ID":"230099745","EPOCH":"2023-04-15T11:57:55.361088","SEMIMAJOR_AXIS":"6918.359","MEAN_ANOMALY":"277.7914","OBJECT_NAME":"STARLINK-4539","COUNTRY_CODE":"US","ARG_OF_PERICENTER":"82.3320","OBJECT_ID":"2022-097AM","PERIOD":"95.447","ECCENTRICITY":"0.00021240","LAUNCH_DATE":"2022-08-10","CENTER_NAME":"EARTH","RCS_SIZE":"LARGE","NORAD_CAT_ID":"53423","DECAY_DATE":null,"TLE_LINE2":"2 53423  53.2166 189.0247 0002124  82.3320 277.7914 15.08683298 38727","MEAN_MOTION":"15.08683298","REV_AT_EPOCH":"3872","TLE_LINE1":"1 53423U 22097AM  23105.49855742  .00003818  00000-0  25891-3 0  9990","EPHEMERIS_TYPE":"0","APOAPSIS":"541.694","INCLINATION":"53.2166"},{"TIME_SYSTEM":"UTC","FILE":"3888171","OBJECT_TYPE":"PAYLOAD","GP_ID":"230132259","CLASSIFICATION_TYPE":"U","EPOCH":"2023-04-15T17:51:48.902400","OBJECT_NAME":"STARLINK-4532","MEAN_ANOMALY":"296.4447","SEMIMAJOR_AXIS":"6917.791","ELEMENT_SET_NO":"999","REF_FRAME":"TEME","PERIAPSIS":"538.898","SITE":"AFETR","MEAN_ELEMENT_THEORY":"SGP4","RA_OF_ASC_NODE":"187.9120","BSTAR":"0.00215970000000","MEAN_MOTION_DDOT":"0.0000000000000","MEAN_MOTION_DOT":"0.00034279","TLE_LINE2":"2 53424  53.2151 187.9120 0001095  63.6657 296.4447 15.08869265 38785","MEAN_MOTION":"15.08869265","INCLINATION":"53.2151","APOAPSIS":"540.413","TLE_LINE1":"1 53424U 22097AN  23105.74431600  .00034279  00000-0  21597-2 0  9995","EPHEMERIS_TYPE":"0","REV_AT_EPOCH":"3878","PERIOD":"95.436","OBJECT_ID":"2022-097AN","ARG_OF_PERICENTER":"63.6657","COUNTRY_CODE":"US","RCS_SIZE":"LARGE","LAUNCH_DATE":"2022-08-10","CENTER_NAME":"EARTH","ECCENTRICITY":"0.00010950","DECAY_DATE":null,"NORAD_CAT_ID":"53424"},{"PERIAPSIS":"539.012","ELEMENT_SET_NO":"999","REF_FRAME":"TEME","MEAN_ELEMENT_THEORY":"SGP4","SITE":"AFETR","MEAN_MOTION_DDOT":"0.0000000000000","MEAN_MOTION_DOT":"0.00001393","BSTAR":"0.00010556000000","RA_OF_ASC_NODE":"189.0514","FILE":"3887974","OBJECT_TYPE":"PAYLOAD","TIME_SYSTEM":"UTC","CLASSIFICATION_TYPE":"U","GP_ID":"230100742","EPOCH":"2023-04-15T11:46:09.945696","MEAN_ANOMALY":"262.8248","SEMIMAJOR_AXIS":"6917.853","OBJECT_NAME":"STARLINK-4531","COUNTRY_CODE":"US","ARG_OF_PERICENTER":"97.2860","OBJECT_ID":"2022-097AP","PERIOD":"95.437","LAUNCH_DATE":"2022-08-10","ECCENTRICITY":"0.00010200","CENTER_NAME":"EARTH","RCS_SIZE":"LARGE","DECAY_DATE":null,"NORAD_CAT_ID":"53425","TLE_LINE2":"2 53425  53.2170 189.0514 0001020  97.2860 262.8248 15.08848997 38712","MEAN_MOTION":"15.08848997","REV_AT_EPOCH":"3871","TLE_LINE1":"1 53425U 22097AP  23105.49039289  .00001393  00000-0  10556-3 0  9990","EPHEMERIS_TYPE":"0","APOAPSIS":"540.424","INCLINATION":"53.2170"},{"REV_AT_EPOCH":"3888","INCLINATION":"53.2172","EPHEMERIS_TYPE":"0","TLE_LINE1":"1 53426U 22097AQ  23105.52445771  .00002550  00000-0  17822-3 0  9991","APOAPSIS":"540.723","MEAN_MOTION":"15.08844812","TLE_LINE2":"2 53426  53.2172 179.0552 0001434  88.9059 271.2098 15.08844812 38889","DECAY_DATE":null,"NORAD_CAT_ID":"53426","LAUNCH_DATE":"2022-08-10","ECCENTRICITY":"0.00014340","CENTER_NAME":"EARTH","RCS_SIZE":"LARGE","COUNTRY_CODE":"US","OBJECT_ID":"2022-097AQ","PERIOD":"95.437","ARG_OF_PERICENTER":"88.9059","MEAN_ANOMALY":"271.2098","SEMIMAJOR_AXIS":"6917.866","OBJECT_NAME":"STARLINK-4558","EPOCH":"2023-04-15T12:35:13.146144","GP_ID":"230099496","CLASSIFICATION_TYPE":"U","TIME_SYSTEM":"UTC","FILE":"3887974","OBJECT_TYPE":"PAYLOAD","BSTAR":"0.00017822000000","MEAN_MOTION_DDOT":"0.0000000000000","MEAN_MOTION_DOT":"0.00002550","RA_OF_ASC_NODE":"179.0552","MEAN_ELEMENT_THEORY":"SGP4","SITE":"AFETR","PERIAPSIS":"538.739","ELEMENT_SET_NO":"999","REF_FRAME":"TEME"},{"APOAPSIS":"540.705","TLE_LINE1":"1 53427U 22097AR  23105.54927758  .00002072  00000-0  14824-3 0  9992","EPHEMERIS_TYPE":"0","INCLINATION":"53.2161","REV_AT_EPOCH":"3875","TLE_LINE2":"2 53427  53.2161 188.7876 0001405  88.1993 271.9160 15.08844161 38751","MEAN_MOTION":"15.08844161","RCS_SIZE":"LARGE","LAUNCH_DATE":"2022-08-10","ECCENTRICITY":"0.00014050","CENTER_NAME":"EARTH","DECAY_DATE":null,"NORAD_CAT_ID":"53427","ARG_OF_PERICENTER":"88.1993","OBJECT_ID":"2022-097AR","PERIOD":"95.437","COUNTRY_CODE":"US","EPOCH":"2023-04-15T13:10:57.582912","OBJECT_NAME":"STARLINK-4541","SEMIMAJOR_AXIS":"6917.868","MEAN_ANOMALY":"271.9160","OBJECT_TYPE":"PAYLOAD","FILE":"3887974","TIME_SYSTEM":"UTC","CLASSIFICATION_TYPE":"U","GP_ID":"230100244","SITE":"AFETR","MEAN_ELEMENT_THEORY":"SGP4","RA_OF_ASC_NODE":"188.7876","MEAN_MOTION_DDOT":"0.0000000000000","MEAN_MOTION_DOT":"0.00002072","BSTAR":"0.00014824000000","ELEMENT_SET_NO":"999","REF_FRAME":"TEME","PERIAPSIS":"538.761"},{"ELEMENT_SET_NO":"999","REF_FRAME":"TEME","PERIAPSIS":"538.821","SITE":"AFETR","MEAN_ELEMENT_THEORY":"SGP4","RA_OF_ASC_NODE":"179.0090","BSTAR":"0.00006323300000","MEAN_MOTION_DOT":"0.00000719","MEAN_MOTION_DDOT":"0.0000000000000","TIME_SYSTEM":"UTC","FILE":"3887974","OBJECT_TYPE":"PAYLOAD","GP_ID":"230100996","CLASSIFICATION_TYPE":"U","EPOCH":"2023-04-15T12:24:36.517248","OBJECT_NAME":"STARLINK-4540","SEMIMAJOR_AXIS":"6917.867","MEAN_ANOMALY":"253.1130","PERIOD":"95.437","OBJECT_ID":"2022-097AS","ARG_OF_PERICENTER":"107.0007","COUNTRY_CODE":"US","RCS_SIZE":"LARGE","LAUNCH_DATE":"2022-08-10","CENTER_NAME":"EARTH","ECCENTRICITY":"0.00013170","DECAY_DATE":null,"NORAD_CAT_ID":"53428","TLE_LINE2":"2 53428  53.2185 179.0090 0001317 107.0007 253.1130 15.08844279 38881","MEAN_MOTION":"15.08844279","INCLINATION":"53.2185","TLE_LINE1":"1 53428U 22097AS  23105.51708932  .00000719  00000-0  63233-4 0  9996","EPHEMERIS_TYPE":"0","APOAPSIS":"540.643","REV_AT_EPOCH":"3888"},{"MEAN_MOTION":"15.08822551","TLE_LINE2":"2 53429  53.2173 179.0308 0001305  91.9508 268.1634 15.08822551 38889","INCLINATION":"53.2173","TLE_LINE1":"1 53429U 22097AT  23105.52079399 -.00001680  00000-0 -87519-4 0  9999","APOAPSIS":"540.702","EPHEMERIS_TYPE":"0","REV_AT_EPOCH":"3888","PERIOD":"95.439","OBJECT_ID":"2022-097AT","ARG_OF_PERICENTER":"91.9508","COUNTRY_CODE":"US","NORAD_CAT_ID":"53429","DECAY_DATE":null,"RCS_SIZE":"LARGE","LAUNCH_DATE":"2022-08-10","ECCENTRICITY":"0.00013050","CENTER_NAME":"EARTH","GP_ID":"230101242","CLASSIFICATION_TYPE":"U","TIME_SYSTEM":"UTC","FILE":"3887974","OBJECT_TYPE":"PAYLOAD","OBJECT_NAME":"STARLINK-4543","MEAN_ANOMALY":"268.1634","SEMIMAJOR_AXIS":"6917.934","EPOCH":"2023-04-15T12:29:56.600736","ELEMENT_SET_NO":"999","REF_FRAME":"TEME","PERIAPSIS":"538.896","RA_OF_ASC_NODE":"179.0308","BSTAR":"-0.00008751900000","MEAN_MOTION_DOT":"-0.00001680","MEAN_MOTION_DDOT":"0.0000000000000","SITE":"AFETR","MEAN_ELEMENT_THEORY":"SGP4"}];
